NORAD_CAT_ID,OBJECT_NAME,OBJECT_TYPE,EPOCH,MEAN_MOTION,ECCENTRICITY,INCLINATION,RA_OF_ASC_NODE,ARG_OF_PERICENTER,MEAN_ANOMALY,BSTAR,MEAN_MOTION_DOT,MEAN_MOTION_DDOT,TLE_LINE0,TLE_LINE1,TLE_LINE2,SEMIMAJOR_AXIS,PERIOD,APOGEE,PERIGEE,DECAYED
51123.0,STARLINK-3392,PAYLOAD,2022-05-26 22:00:00,15.08828793,0.0001808,53.2195,16.6343,48.7001,98.0241,-0.0013495,-0.00021695,0.0,0 STARLINK-3392,1 51123U 22005V   22146.91667824 -.00021695  00000-0 -13495-2 0  9998,2 51123  53.2195  16.6343 0001808  48.7001  98.0241 15.08828793  1308,6917.915,95.438,541.03,538.529,0.0
51123.0,STARLINK-3392,PAYLOAD,2022-05-27 04:00:00,15.08817278,0.0001802,53.2193,15.5121,44.5935,20.8096,0.0014337999999999,0.0002259,0.0,0 STARLINK-3392,1 51123U 22005V   22147.16667824  .00022590  00000-0  14338-2 0  9996,2 51123  53.2193  15.5121 0001802  44.5935  20.8096 15.08817278 21244,6917.95,95.439,541.061,538.568,0.0
51123.0,STARLINK-3392,PAYLOAD,2022-05-27 14:00:01,15.08822037,0.000169,53.2195,13.6401,53.3477,116.5293,0.0024957,0.00039635,0.0,0 STARLINK-3392,1 51123U 22005V   22147.58334491  .00039635  00000-0  24957-2 0  9999,2 51123  53.2195  13.6401 0001690  53.3477 116.5293 15.08822037  1306,6917.935,95.439,540.969,538.631,0.0
51123.0,STARLINK-3392,PAYLOAD,2022-05-27 22:00:01,15.08844985,0.0001853,53.2194,12.1456,47.8278,133.704,-8.139e-05,-1.583e-05,0.0,0 STARLINK-3392,1 51123U 22005V   22147.91668981 -.00001583  00000-0 -81390-4 0  9999,2 51123  53.2194  12.1456 0001853  47.8278 133.7040 15.08844985  1304,6917.865,95.437,541.012,538.448,0.0
51123.0,STARLINK-3392,PAYLOAD,2022-05-28 06:00:02,15.08868556,0.0001761,53.2193,10.6486,45.3529,147.7809,-0.0030939,-0.0004923,0.0,0 STARLINK-3392,1 51123U 22005V   22148.25002315 -.00049230  00000-0 -30939-2 0  9992,2 51123  53.2193  10.6486 0001761  45.3529 147.7809 15.08868556 21411,6917.793000000002,95.436,540.876,538.44,0.0
51123.0,STARLINK-3392,PAYLOAD,2022-05-28 14:00:01,15.08862891,0.0001692,53.2183,9.1449,53.3476,151.3301,-0.0045486999999999,-0.00072003,0.0,0 STARLINK-3392,1 51123U 22005V   22148.58334491 -.00072003  00000-0 -45487-2 0  9999,2 51123  53.2183   9.1449 0001692  53.3476 151.3301 15.08862891  1305,6917.81,95.436,540.846,538.505,0.0
51123.0,STARLINK-3392,PAYLOAD,2022-05-28 21:02:44,15.08839149,0.0001817,53.2207,7.8334,56.0488,304.0677,0.00010897,1.447e-05,0.0,0 STARLINK-3392,1 51123U 22005V   22148.87690150  .00001447  00000-0  10897-3 0  9998,2 51123  53.2207   7.8334 0001817  56.0488 304.0677 15.08839149 21509,6917.8830000000025,95.438,541.005,538.491,0.0
51123.0,STARLINK-3392,PAYLOAD,2022-05-29 14:00:01,15.0881265,0.0001541,53.2199,4.6623,45.3505,194.1108,0.0014616,0.00023032,0.0,0 STARLINK-3392,1 51123U 22005V   22149.58334491  .00023032  00000-0  14616-2 0  9996,2 51123  53.2199   4.6623 0001541  45.3505 194.1108 15.08812650 21617,6917.964,95.439,540.895,538.763,0.0
51123.0,STARLINK-3392,PAYLOAD,2022-05-29 20:53:32,15.08834142,0.0001740999999999,53.2212,3.3733,50.3798,309.7348,-5.0775e-05,-1.096e-05,0.0,0 STARLINK-3392,1 51123U 22005V   22149.87051145 -.00001096  00000-0 -50775-4 0  9996,2 51123  53.2212   3.3733 0001741  50.3798 309.7348 15.08834142 20577,6917.898,95.438,540.9680000000002,538.559,0.0
51123.0,STARLINK-3392,PAYLOAD,2022-05-30 14:00:01,15.08838323,0.0001591,53.2192,0.1735,46.8402,227.3631,0.0016428,0.00025953,0.0,0 STARLINK-3392,1 51123U 22005V   22150.58334491  .00025953  00000-0  16428-2 0  9995,2 51123  53.2192   0.1735 0001591  46.8402 227.3631 15.08838323 21763,6917.886,95.438,540.851,538.65,0.0
51123.0,STARLINK-3392,PAYLOAD,2022-05-30 14:22:46,15.08841256,0.0001631999999999,53.2218,0.1021,46.8224,313.2905,-5.7709e-05,-1.206e-05,0.0,0 STARLINK-3392,1 51123U 22005V   22150.59914782 -.00001206  00000-0 -57709-4 0  9999,2 51123  53.2218   0.1021 0001632  46.8224 313.2905 15.08841256 20686,6917.877,95.437,540.871,538.613,0.0
51123.0,STARLINK-3392,PAYLOAD,2022-05-30 22:00:00,15.08854763,0.0001834,53.2182,358.6788,42.2191,243.5885,-0.0019915,-0.00031856,0.0,0 STARLINK-3392,1 51123U 22005V   22150.91667824 -.00031856  00000-0 -19915-2 0  9996,2 51123  53.2182 358.6788 0001834  42.2191 243.5885 15.08854763  1301,6917.835,95.437,540.969,538.432,0.0
51123.0,STARLINK-3392,PAYLOAD,2022-05-31 06:00:02,15.08843498,0.0001761999999999,53.2179,357.1814,44.7239,252.7449,-0.0018253,-0.00029223,0.0,0 STARLINK-3392,1 51123U 22005V   22151.25002315 -.00029223  00000-0 -18253-2 0  9991,2 51123  53.2179 357.1814 0001762  44.7239 252.7449 15.08843498 21865,6917.87,95.437,540.9540000000002,538.516,0.0
51123.0,STARLINK-3392,PAYLOAD,2022-05-31 22:00:00,15.08830227,0.0001883,53.218,354.1898,45.0854,275.499,0.0013165999999999,0.00020722,0.0,0 STARLINK-3392,1 51123U 22005V   22151.91667824  .00020722  00000-0  13166-2 0  9997,2 51123  53.2180 354.1898 0001883  45.0854 275.4990 15.08830227 21967,6917.91,95.438,541.078,538.4730000000002,0.0
51123.0,STARLINK-3392,PAYLOAD,2022-06-01 20:00:01,15.08839921,0.0001769,53.2177,350.0745,45.1404,217.3555,-0.0011581,-0.00018672,0.0,0 STARLINK-3392,1 51123U 22005V   22152.83334491 -.00018672  00000-0 -11581-2 0  9992,2 51123  53.2177 350.0745 0001769  45.1404 217.3555 15.08839921 22103,6917.880999999999,95.438,540.969,538.5219999999998,0.0
51123.0,STARLINK-3392,PAYLOAD,2022-06-02 23:27:26,15.08839432,0.0001745,53.2174,344.93699999999984,46.5533,313.5604,6.1721e-05,6.94e-06,0.0,0 STARLINK-3392,1 51123U 22005V   22153.97738987  .00000694  00000-0  61721-4 0  9992,2 51123  53.2174 344.9370 0001745  46.5533 313.5604 15.08839432 22277,6917.882,95.438,540.9540000000002,538.54,0.0
51123.0,STARLINK-3392,PAYLOAD,2022-06-03 05:48:58,15.08845337,0.0001675,53.2164,343.7476,46.6855,313.4276,4.017e-05,3.51e-06,0.0,0 STARLINK-3392,1 51123U 22005V   22154.24234608  .00000351  00000-0  40170-4 0  9999,2 51123  53.2164 343.7476 0001675  46.6855 313.4276 15.08845337 21230,6917.864000000001,95.437,540.888,538.57,0.0
51123.0,STARLINK-3392,PAYLOAD,2022-06-03 15:21:17,15.08849956,0.0001683,53.2182,341.9641,47.1017,313.0116,4.603100000000002e-05,4.45e-06,0.0,0 STARLINK-3392,1 51123U 22005V   22154.63978115  .00000445  00000-0  46031-4 0  9996,2 51123  53.2182 341.9641 0001683  47.1017 313.0116 15.08849956 22375,6917.85,95.437,540.879,538.5509999999998,0.0
51123.0,STARLINK-3392,PAYLOAD,2022-06-04 12:01:18,15.08833219,0.0001706,53.2187,338.0991,47.9387,312.175,8.8331e-07,-2.74e-06,0.0,0 STARLINK-3392,1 51123U 22005V   22155.50091187 -.00000274  00000-0  88331-6 0  9990,2 51123  53.2187 338.0991 0001706  47.9387 312.1750 15.08833219 22503,6917.901,95.438,540.946,538.586,0.0
51123.0,STARLINK-3392,PAYLOAD,2022-06-05 22:00:00,15.08809057,0.0001974,53.2178,331.7447,46.0402,88.3945,0.003181,0.00050659,0.0,0 STARLINK-3392,1 51123U 22005V   22156.91667824  .00050659  00000-0  31810-2 0  9990,2 51123  53.2178 331.7447 0001974  46.0402  88.3945 15.08809057 22729,6917.975,95.44,541.206,538.474,0.0
51123.0,STARLINK-3392,PAYLOAD,2022-06-06 14:00:01,15.08860367,0.0001881,53.2183,328.7506,52.4778,105.1298,-0.0011832,-0.0001908,0.0,0 STARLINK-3392,1 51123U 22005V   22157.58334491 -.00019080  00000-0 -11832-2 0  9992,2 51123  53.2183 328.7506 0001881  52.4778 105.1298 15.08860367 22822,6917.818,95.436,540.984,538.382,0.0
51123.0,STARLINK-3392,PAYLOAD,2022-06-06 22:00:00,15.08831139,0.0001997,53.2181,327.2558,46.0553,123.1724,0.0030553,0.00048662,0.0,0 STARLINK-3392,1 51123U 22005V   22157.91667824  .00048662  00000-0  30553-2 0  9995,2 51123  53.2181 327.2558 0001997  46.0553 123.1724 15.08831139  1308,6917.906999999997,95.438,541.154,538.391,0.0
51123.0,STARLINK-3392,PAYLOAD,2022-06-07 11:33:39,15.08842639,0.0001871,53.2186,324.7174,51.2136,308.9023,0.00012669,1.729e-05,0.0,0 STARLINK-3392,1 51123U 22005V   22158.48171284  .00001729  00000-0  12669-3 0  9990,2 51123  53.2186 324.7174 0001871  51.2136 308.9023 15.08842639 22951,6917.871999999999,95.437,541.0319999999998,538.443,0.0
51123.0,STARLINK-3392,PAYLOAD,2022-06-07 17:55:13,15.08836005,0.0001862,53.2192,323.5273,51.687,308.4289,6.5632e-05,7.56e-06,0.0,0 STARLINK-3392,1 51123U 22005V   22158.74667896  .00000756  00000-0  65632-4 0  9996,2 51123  53.2192 323.5273 0001862  51.6870 308.4289 15.08836005 22997,6917.893,95.438,541.0459999999998,538.469,0.0
51123.0,STARLINK-3392,PAYLOAD,2022-06-08 03:27:31,15.08843411,0.000184,53.219,321.7433,49.0251,311.09,6.353e-05,7.23e-06,0.0,0 STARLINK-3392,1 51123U 22005V   22159.14411424  .00000723  00000-0  63530-4 0  9994,2 51123  53.2190 321.7433 0001840  49.0251 311.0900 15.08843411 23050,6917.87,95.437,541.008,538.462,0.0
51123.0,STARLINK-3392,PAYLOAD,2022-06-08 12:59:50,15.08844041,0.0001848,53.219,319.9592,49.643,310.4723,-4.5956e-07,-2.95e-06,0.0,0 STARLINK-3392,1 51123U 22005V   22159.54155538 -.00000295  00000-0 -45956-6 0  9999,2 51123  53.2190 319.9592 0001848  49.6430 310.4723 15.08844041 22031,6917.868,95.437,541.011,538.455,0.0
51123.0,STARLINK-3392,PAYLOAD,2022-06-08 17:46:00,15.08840473,0.0001846,53.2187,319.0665,48.0599,312.055,-3.3461e-05,-8.21e-06,0.0,0 STARLINK-3392,1 51123U 22005V   22159.74027829 -.00000821  00000-0 -33461-4 0  9993,2 51123  53.2187 319.0665 0001846  48.0599 312.0550 15.08840473 23140,6917.879,95.438,541.021,538.467,0.0
51123.0,STARLINK-3392,PAYLOAD,2022-06-08 19:21:23,15.08837799,0.0001816,53.2188,318.7696,47.2527,312.8618,-5.3143e-05,-1.134e-05,0.0,0 STARLINK-3392,1 51123U 22005V   22159.80652054 -.00001134  00000-0 -53143-4 0  9991,2 51123  53.2188 318.7696 0001816  47.2527 312.8618 15.08837799 22071,6917.887,95.438,541.008,538.496,0.0
51123.0,STARLINK-3392,PAYLOAD,2022-06-09 12:50:38,15.08828108,0.000168,53.2196,315.5,53.1204,306.9942,-6.229300000000001e-05,-1.279e-05,0.0,0 STARLINK-3392,1 51123U 22005V   22160.53516636 -.00001279  00000-0 -62293-4 0  9994,2 51123  53.2196 315.5000 0001680  53.1204 306.9942 15.08828108 22181,6917.917,95.438,540.944,538.62,0.0
